{
  "type": "FeatureCollection",
  "features": [
    {
      "type": "Feature",
      "properties": {
        "norad_id": 44334,
        "name": "EUTELSAT 7C",
        "group": "eutelsat",
        "lat": -0.0420064641912221,
        "lon": 72.93934664808329,
        "alt_km": 35799.207999448045,
        "timestamp": "2025-12-15T22:44:28.595408+00:00",
        "meta_object_name": "EUTELSAT 7C",
        "meta_object_id": "2019-034B",
        "meta_epoch": "2025-12-15T06:34:24.872736",
        "meta_mean_motion": 1.00271607,
        "meta_eccentricity": 0.00031064,
        "meta_inclination": 0.0726,
        "meta_ra_of_asc_node": 178.8165,
        "meta_arg_of_pericenter": 69.7327,
        "meta_mean_anomaly": 301.2248,
        "meta_ephemeris_type": 0,
        "meta_classification_type": "U",
        "meta_norad_cat_id": 44334,
        "meta_element_set_no": 999,
        "meta_rev_at_epoch": 499,
        "meta_bstar": 0,
        "meta_mean_motion_dot": 6.9e-07,
        "meta_mean_motion_ddot": 0,
        "tle_line1": "1 44334U 19034B   25349.27389899  .00000069  00000+0  00000+0 0  9996",
        "tle_line2": "2 44334   0.0726 178.8165 0003106  69.7327 301.2248  1.00271607  4991"
      },
      "geometry": {
        "type": "Point",
        "coordinates": [
          72.93934664808329,
          -0.0420064641912221
        ]
      }
    },
    {
      "type": "Feature",
      "properties": {
        "norad_id": 44624,
        "name": "EUTELSAT 5 WEST B",
        "group": "eutelsat",
        "lat": 0.08723386415276214,
        "lon": 60.97171394203171,
        "alt_km": 35798.33466648662,
        "timestamp": "2025-12-15T22:44:28.595420+00:00",
        "meta_object_name": "EUTELSAT 5 WEST B",
        "meta_object_id": "2019-067A",
        "meta_epoch": "2025-12-15T01:22:44.632992",
        "meta_mean_motion": 1.00272503,
        "meta_eccentricity": 0.00032173,
        "meta_inclination": 0.0649,
        "meta_ra_of_asc_node": 338.3897,
        "meta_arg_of_pericenter": 286.2375,
        "meta_mean_anomaly": 195.0282,
        "meta_ephemeris_type": 0,
        "meta_classification_type": "U",
        "meta_norad_cat_id": 44624,
        "meta_element_set_no": 999,
        "meta_rev_at_epoch": 2259,
        "meta_bstar": 0,
        "meta_mean_motion_dot": -2.2e-07,
        "meta_mean_motion_ddot": 0,
        "tle_line1": "1 44624U 19067A   25349.05746103 -.00000022  00000+0  00000+0 0  9995",
        "tle_line2": "2 44624   0.0649 338.3897 0003217 286.2375 195.0282  1.00272503 22593"
      },
      "geometry": {
        "type": "Point",
        "coordinates": [
          60.97171394203171,
          0.08723386415276214
        ]
      }
    },
    {
      "type": "Feature",
      "properties": {
        "norad_id": 45027,
        "name": "EUTELSAT KONNECT",
        "group": "eutelsat",
        "lat": -0.00017092886904823394,
        "lon": 73.15902490965443,
        "alt_km": 35791.30725290129,
        "timestamp": "2025-12-15T22:44:28.595433+00:00",
        "meta_object_name": "EUTELSAT KONNECT",
        "meta_object_id": "2020-005B",
        "meta_epoch": "2025-12-15T06:34:24.872736",
        "meta_mean_motion": 1.00270081,
        "meta_eccentricity": 0.00013523,
        "meta_inclination": 0.0699,
        "meta_ra_of_asc_node": 96.7548,
        "meta_arg_of_pericenter": 189.5483,
        "meta_mean_anomaly": 263.6831,
        "meta_ephemeris_type": 0,
        "meta_classification_type": "U",
        "meta_norad_cat_id": 45027,
        "meta_element_set_no": 999,
        "meta_rev_at_epoch": 2249,
        "meta_bstar": 0,
        "meta_mean_motion_dot": 7e-07,
        "meta_mean_motion_ddot": 0,
        "tle_line1": "1 45027U 20005B   25349.27389899  .00000070  00000+0  00000+0 0  9998",
        "tle_line2": "2 45027   0.0699  96.7548 0001352 189.5483 263.6831  1.00270081 22497"
      },
      "geometry": {
        "type": "Point",
        "coordinates": [
          73.15902490965443,
          -0.00017092886904823394
        ]
      }
    },
    {
      "type": "Feature",
      "properties": {
        "norad_id": 49056,
        "name": "EUTELSAT QUANTUM",
        "group": "eutelsat",
        "lat": 0.027090914400293712,
        "lon": 113.65728638305065,
        "alt_km": 35800.288968181754,
        "timestamp": "2025-12-15T22:44:28.595445+00:00",
        "meta_object_name": "EUTELSAT QUANTUM",
        "meta_object_id": "2021-069B",
        "meta_epoch": "2025-12-15T05:03:11.111328",
        "meta_mean_motion": 1.00273146,
        "meta_eccentricity": 0.00036196,
        "meta_inclination": 0.0112,
        "meta_ra_of_asc_node": 356.0818,
        "meta_arg_of_pericenter": 281.1432,
        "meta_mean_anomaly": 290.4022,
        "meta_ephemeris_type": 0,
        "meta_classification_type": "U",
        "meta_norad_cat_id": 49056,
        "meta_element_set_no": 999,
        "meta_rev_at_epoch": 1608,
        "meta_bstar": 0,
        "meta_mean_motion_dot": 1.47e-06,
        "meta_mean_motion_ddot": 0,
        "tle_line1": "1 49056U 21069B   25349.21054527  .00000147  00000+0  00000+0 0  9991",
        "tle_line2": "2 49056   0.0112 356.0818 0003619 281.1432 290.4022  1.00273146 16089"
      },
      "geometry": {
        "type": "Point",
        "coordinates": [
          113.65728638305065,
          0.027090914400293712
        ]
      }
    },
    {
      "type": "Feature",
      "properties": {
        "norad_id": 53765,
        "name": "EUTELSAT KONNECT VHTS",
        "group": "eutelsat",
        "lat": -0.005539659482310247,
        "lon": 68.68089447995318,
        "alt_km": 35796.54030435093,
        "timestamp": "2025-12-15T22:44:28.595457+00:00",
        "meta_object_name": "EUTELSAT KONNECT VHTS",
        "meta_object_id": "2022-110A",
        "meta_epoch": "2025-12-15T06:33:09.991584",
        "meta_mean_motion": 1.0027256,
        "meta_eccentricity": 0.00026657,
        "meta_inclination": 0.0637,
        "meta_ra_of_asc_node": 102.1934,
        "meta_arg_of_pericenter": 128.1702,
        "meta_mean_anomaly": 314.8436,
        "meta_ephemeris_type": 0,
        "meta_classification_type": "U",
        "meta_norad_cat_id": 53765,
        "meta_element_set_no": 999,
        "meta_rev_at_epoch": 498,
        "meta_bstar": 0,
        "meta_mean_motion_dot": 3.9e-07,
        "meta_mean_motion_ddot": 0,
        "tle_line1": "1 53765U 22110A   25349.27303231  .00000039  00000+0  00000+0 0  9996",
        "tle_line2": "2 53765   0.0637 102.1934 0002665 128.1702 314.8436  1.00272560  4987"
      },
      "geometry": {
        "type": "Point",
        "coordinates": [
          68.68089447995318,
          -0.005539659482310247
        ]
      }
    },
    {
      "type": "Feature",
      "properties": {
        "norad_id": 54048,
        "name": "EUTELSAT HOTBIRD 13F",
        "group": "eutelsat",
        "lat": 0.04597697161405144,
        "lon": 78.97163765163035,
        "alt_km": 35783.84413804149,
        "timestamp": "2025-12-15T22:44:28.595469+00:00",
        "meta_object_name": "EUTELSAT HOTBIRD 13F",
        "meta_object_id": "2022-134A",
        "meta_epoch": "2025-12-14T22:02:26.653056",
        "meta_mean_motion": 1.0027139,
        "meta_eccentricity": 0.00023413,
        "meta_inclination": 0.0492,
        "meta_ra_of_asc_node": 293.4772,
        "meta_arg_of_pericenter": 68.5165,
        "meta_mean_anomaly": 65.4415,
        "meta_ephemeris_type": 0,
        "meta_classification_type": "U",
        "meta_norad_cat_id": 54048,
        "meta_element_set_no": 999,
        "meta_rev_at_epoch": 1152,
        "meta_bstar": 0,
        "meta_mean_motion_dot": 1.07e-06,
        "meta_mean_motion_ddot": 0,
        "tle_line1": "1 54048U 22134A   25348.91836404  .00000107  00000+0  00000+0 0  9996",
        "tle_line2": "2 54048   0.0492 293.4772 0002341  68.5165  65.4415  1.00271390 11520"
      },
      "geometry": {
        "type": "Point",
        "coordinates": [
          78.97163765163035,
          0.04597697161405144
        ]
      }
    },
    {
      "type": "Feature",
      "properties": {
        "norad_id": 54225,
        "name": "EUTELSAT HOTBIRD 13G",
        "group": "eutelsat",
        "lat": 0.005437099718870199,
        "lon": 78.92114481041266,
        "alt_km": 35787.05240931865,
        "timestamp": "2025-12-15T22:44:28.595482+00:00",
        "meta_object_name": "EUTELSAT HOTBIRD 13G",
        "meta_object_id": "2022-146A",
        "meta_epoch": "2025-12-15T01:27:51.643296",
        "meta_mean_motion": 1.00271037,
        "meta_eccentricity": 0.00016771,
        "meta_inclination": 0.0491,
        "meta_ra_of_asc_node": 234.702,
        "meta_arg_of_pericenter": 301.0277,
        "meta_mean_anomaly": 303.1958,
        "meta_ephemeris_type": 0,
        "meta_classification_type": "U",
        "meta_norad_cat_id": 54225,
        "meta_element_set_no": 999,
        "meta_rev_at_epoch": 562,
        "meta_bstar": 0,
        "meta_mean_motion_dot": 1.07e-06,
        "meta_mean_motion_ddot": 0,
        "tle_line1": "1 54225U 22146A   25349.06101439  .00000107  00000+0  00000+0 0  9996",
        "tle_line2": "2 54225   0.0491 234.7020 0001677 301.0277 303.1958  1.00271037  5626"
      },
      "geometry": {
        "type": "Point",
        "coordinates": [
          78.92114481041266,
          0.005437099718870199
        ]
      }
    }
  ]
}